[{"OBJECT_NAME":"STARLINK-30069","OBJECT_ID":"2023-079M","EPOCH":"2026-03-08T11:34:15.947328","MEAN_MOTION":15.26726881,"ECCENTRICITY":4.69e-5,"INCLINATION":42.9986,"RA_OF_ASC_NODE":110.4464,"ARG_OF_PERICENTER":272.6695,"MEAN_ANOMALY":87.4103,"EPHEMERIS_TYPE":0,"CLASSIFICATION_TYPE":"U","NORAD_CAT_ID":56834,"ELEMENT_SET_NO":999,"REV_AT_EPOCH":15274,"BSTAR":-8.0472e-5,"MEAN_MOTION_DOT":-2.416e-5,"MEAN_MOTION_DDOT":0},{"OBJECT_NAME":"STARLINK-30985","OBJECT_ID":"2023-186W","EPOCH":"2026-03-09T22:00:30.929760","MEAN_MOTION":15.2719302,"ECCENTRICITY":0.00016879,"INCLINATION":43.0045,"RA_OF_ASC_NODE":62.1336,"ARG_OF_PERICENTER":278.031,"MEAN_ANOMALY":82.035,"EPHEMERIS_TYPE":0,"CLASSIFICATION_TYPE":"U","NORAD_CAT_ID":58493,"ELEMENT_SET_NO":999,"REV_AT_EPOCH":12592,"BSTAR":0.0033302819,"MEAN_MOTION_DOT":0.00091437,"MEAN_MOTION_DDOT":0}]
